{"type": "FeatureCollection", "features": [ {"type": "Feature", "properties": {"norad_id": 34117, "name": "COSMOS 2251 DEB", "group": "cosmos-2251-debris", "lat": 3.4003735006086937, "lon": 164.60682760922063, "alt_km": 776.3298314820777, "timestamp": "2025-12-11T18:59:46.469013+00:00", "meta": {"OBJECT_NAME": "COSMOS 2251 DEB", "OBJECT_ID": "1993-036KN", "EPOCH": "2025-12-11T06:30:50.029632", "MEAN_MOTION": 14.40002385, "ECCENTRICITY": 0.00544851, "INCLINATION": 74.0405, "RA_OF_ASC_NODE": 346.5415, "ARG_OF_PERICENTER": 63.3585, "MEAN_ANOMALY": 297.3136, "EPHEMERIS_TYPE": 0, "CLASSIFICATION_TYPE": "U", "NORAD_CAT_ID": 34117, "ELEMENT_SET_NO": 999, "REV_AT_EPOCH": 88102, "BSTAR": 0.0010756194, "MEAN_MOTION_DOT": 3.423e-05, "MEAN_MOTION_DDOT": 0}, "tle": {"line1": "1 34117U 93036KN  25345.27141238  .00003423  00000+0  10756-2 0  9996", "line2": "2 34117  74.0405 346.5415 0054485  63.3585 297.3136 14.40002385881029"}}, "geometry": {"type": "Point", "coordinates": [164.60682760922063, 3.4003735006086937]}}, {"type": "Feature", "properties": {"norad_id": 34118, "name": "COSMOS 2251 DEB", "group": "cosmos-2251-debris", "lat": 58.419845830040515, "lon": -80.8560447267287, "alt_km": 540.5378209527489, "timestamp": "2025-12-11T18:59:46.469023+00:00", "meta": {"OBJECT_NAME": "COSMOS 2251 DEB", "OBJECT_ID": "1993-036KP", "EPOCH": "2025-12-11T04:57:26.518752", "MEAN_MOTION": 14.93846204, "ECCENTRICITY": 0.00598016, "INCLINATION": 73.9524, "RA_OF_ASC_NODE": 252.4068, "ARG_OF_PERICENTER": 83.167, "MEAN_ANOMALY": 75.0428, "EPHEMERIS_TYPE": 0, "CLASSIFICATION_TYPE": "U", "NORAD_CAT_ID": 34118, "ELEMENT_SET_NO": 999, "REV_AT_EPOCH": 89153, "BSTAR": 0.0029441023, "MEAN_MOTION_DOT": 0.000325, "MEAN_MOTION_DDOT": 0}, "tle": {"line1": "1 34118U 93036KP  25345.20655693  .00032500  00000+0  29441-2 0  9994", "line2": "2 34118  73.9524 252.4068 0059801  83.1670  75.0428 14.93846204891537"}}, "geometry": {"type": "Point", "coordinates": [-80.8560447267287, 58.419845830040515]}}, {"type": "Feature", "properties": {"norad_id": 34120, "name": "COSMOS 2251 DEB", "group": "cosmos-2251-debris", "lat": 69.41817730716215, "lon": -92.27231196872697, "alt_km": 777.3710382803647, "timestamp": "2025-12-11T18:59:46.469034+00:00", "meta": {"OBJECT_NAME": "COSMOS 2251 DEB", "OBJECT_ID": "1993-036KR", "EPOCH": "2025-12-11T02:12:35.457120", "MEAN_MOTION": 13.98680546, "ECCENTRICITY": 0.0181886, "INCLINATION": 73.9914, "RA_OF_ASC_NODE": 219.0746, "ARG_OF_PERICENTER": 47.1262, "MEAN_ANOMALY": 108.276, "EPHEMERIS_TYPE": 0, "CLASSIFICATION_TYPE": "U", "NORAD_CAT_ID": 34120, "ELEMENT_SET_NO": 999, "REV_AT_EPOCH": 85957, "BSTAR": 0.00048335096, "MEAN_MOTION_DOT": 7.77e-06, "MEAN_MOTION_DDOT": 0}, "tle": {"line1": "1 34120U 93036KR  25345.09207705  .00000777  00000+0  48335-3 0  9996", "line2": "2 34120  73.9914 219.0746 0181886  47.1262 108.2760 13.98680546859576"}}, "geometry": {"type": "Point", "coordinates": [-92.27231196872697, 69.41817730716215]}}, {"type": "Feature", "properties": {"norad_id": 34121, "name": "COSMOS 2251 DEB", "group": "cosmos-2251-debris", "lat": -45.7367271783532, "lon": 81.6658022635863, "alt_km": 754.338060596785, "timestamp": "2025-12-11T18:59:46.469045+00:00", "meta": {"OBJECT_NAME": "COSMOS 2251 DEB", "OBJECT_ID": "1993-036KS", "EPOCH": "2025-12-11T07:17:10.844736", "MEAN_MOTION": 13.91922048, "ECCENTRICITY": 0.02401688, "INCLINATION": 73.9927, "RA_OF_ASC_NODE": 99.6315, "ARG_OF_PERICENTER": 305.3856, "MEAN_ANOMALY": 82.2292, "EPHEMERIS_TYPE": 0, "CLASSIFICATION_TYPE": "U", "NORAD_CAT_ID": 34121, "ELEMENT_SET_NO": 999, "REV_AT_EPOCH": 85105, "BSTAR": 0.0018777614, "MEAN_MOTION_DOT": 3.005e-05, "MEAN_MOTION_DDOT": 0}, "tle": {"line1": "1 34121U 93036KS  25345.30359774  .00003005  00000+0  18778-2 0  9999", "line2": "2 34121  73.9927  99.6315 0240168 305.3856  82.2292 13.91922048851057"}}, "geometry": {"type": "Point", "coordinates": [81.6658022635863, -45.7367271783532]}}, {"type": "Feature", "properties": {"norad_id": 34122, "name": "COSMOS 2251 DEB", "group": "cosmos-2251-debris", "lat": -46.10186707810433, "lon": 103.15224768168302, "alt_km": 658.8930571645469, "timestamp": "2025-12-11T18:59:46.469056+00:00", "meta": {"OBJECT_NAME": "COSMOS 2251 DEB", "OBJECT_ID": "1993-036KT", "EPOCH": "2025-12-11T03:38:21.169824", "MEAN_MOTION": 14.65013065, "ECCENTRICITY": 0.00842297, "INCLINATION": 74.0359, "RA_OF_ASC_NODE": 121.6893, "ARG_OF_PERICENTER": 19.001, "MEAN_ANOMALY": 160.0559, "EPHEMERIS_TYPE": 0, "CLASSIFICATION_TYPE": "U", "NORAD_CAT_ID": 34122, "ELEMENT_SET_NO": 999, "REV_AT_EPOCH": 88661, "BSTAR": 0.0017958033, "MEAN_MOTION_DOT": 0.00010125, "MEAN_MOTION_DDOT": 0}, "tle": {"line1": "1 34122U 93036KT  25345.15163391  .00010125  00000+0  17958-2 0  9991", "line2": "2 34122  74.0359 121.6893 0084229  19.0010 160.0559 14.65013065886614"}}, "geometry": {"type": "Point", "coordinates": [103.15224768168302, -46.10186707810433]}}, {"type": "Feature", "properties": {"norad_id": 34127, "name": "COSMOS 2251 DEB", "group": "cosmos-2251-debris", "lat": -20.375408893932377, "lon": 39.53241091990242, "alt_km": 794.8260537884726, "timestamp": "2025-12-11T18:59:46.469067+00:00", "meta": {"OBJECT_NAME": "COSMOS 2251 DEB", "OBJECT_ID": "1993-036KY", "EPOCH": "2025-12-11T05:56:59.724672", "MEAN_MOTION": 14.31523524, "ECCENTRICITY": 0.01149236, "INCLINATION": 74.179, "RA_OF_ASC_NODE": 46.5595, "ARG_OF_PERICENTER": 247.0228, "MEAN_ANOMALY": 170.2631, "EPHEMERIS_TYPE": 0, "CLASSIFICATION_TYPE": "U", "NORAD_CAT_ID": 34127, "ELEMENT_SET_NO": 999, "REV_AT_EPOCH": 86750, "BSTAR": 0.0034590442, "MEAN_MOTION_DOT": 9.875e-05, "MEAN_MOTION_DDOT": 0}, "tle": {"line1": "1 34127U 93036KY  25345.24791348  .00009875  00000+0  34590-2 0  9996", "line2": "2 34127  74.1790  46.5595 0114923 247.0228 170.2631 14.31523524867502"}}, "geometry": {"type": "Point", "coordinates": [39.53241091990242, -20.375408893932377]}}, {"type": "Feature", "properties": {"norad_id": 34128, "name": "COSMOS 2251 DEB", "group": "cosmos-2251-debris", "lat": -51.17642495392581, "lon": -82.23239578209645, "alt_km": 574.8422882686464, "timestamp": "2025-12-11T18:59:46.469077+00:00", "meta": {"OBJECT_NAME": "COSMOS 2251 DEB", "OBJECT_ID": "1993-036KZ", "EPOCH": "2025-12-11T06:58:58.887840", "MEAN_MOTION": 15.01048917, "ECCENTRICITY": 0.00262244, "INCLINATION": 73.9994, "RA_OF_ASC_NODE": 299.6798, "ARG_OF_PERICENTER": 52.31, "MEAN_ANOMALY": 70.1521, "EPHEMERIS_TYPE": 0, "CLASSIFICATION_TYPE": "U", "NORAD_CAT_ID": 34128, "ELEMENT_SET_NO": 999, "REV_AT_EPOCH": 89145, "BSTAR": 0.0037273717, "MEAN_MOTION_DOT": 0.00048291, "MEAN_MOTION_DDOT": 0}, "tle": {"line1": "1 34128U 93036KZ  25345.29095935  .00048291  00000+0  37274-2 0  9998", "line2": "2 34128  73.9994 299.6798 0026224  52.3100  70.1521 15.01048917891457"}}, "geometry": {"type": "Point", "coordinates": [-82.23239578209645, -51.17642495392581]}}, {"type": "Feature", "properties": {"norad_id": 34129, "name": "COSMOS 2251 DEB", "group": "cosmos-2251-debris", "lat": -47.7605776584037, "lon": -36.99473155838957, "alt_km": 658.516318366479, "timestamp": "2025-12-11T18:59:46.469088+00:00", "meta": {"OBJECT_NAME": "COSMOS 2251 DEB", "OBJECT_ID": "1993-036LA", "EPOCH": "2025-12-11T06:12:28.119456", "MEAN_MOTION": 14.75694196, "ECCENTRICITY": 0.0032872, "INCLINATION": 74.0357, "RA_OF_ASC_NODE": 342.4243, "ARG_OF_PERICENTER": 64.4125, "MEAN_ANOMALY": 296.044, "EPHEMERIS_TYPE": 0, "CLASSIFICATION_TYPE": "U", "NORAD_CAT_ID": 34129, "ELEMENT_SET_NO": 999, "REV_AT_EPOCH": 61276, "BSTAR": 0.0024938783, "MEAN_MOTION_DOT": 0.00017213, "MEAN_MOTION_DDOT": 0}, "tle": {"line1": "1 34129U 93036LA  25345.25865879  .00017213  00000+0  24939-2 0  9991", "line2": "2 34129  74.0357 342.4243 0032872  64.4125 296.0440 14.75694196612762"}}, "geometry": {"type": "Point", "coordinates": [-36.99473155838957, -47.7605776584037]}}, {"type": "Feature", "properties": {"norad_id": 34136, "name": "COSMOS 2251 DEB", "group": "cosmos-2251-debris", "lat": 73.96191087735623, "lon": 129.91871099439902, "alt_km": 609.69891655427, "timestamp": "2025-12-11T18:59:46.469098+00:00", "meta": {"OBJECT_NAME": "COSMOS 2251 DEB", "OBJECT_ID": "1993-036LH", "EPOCH": "2025-12-11T05:52:23.985120", "MEAN_MOTION": 14.80063802, "ECCENTRICITY": 0.00858952, "INCLINATION": 74.0208, "RA_OF_ASC_NODE": 45.5807, "ARG_OF_PERICENTER": 168.9587, "MEAN_ANOMALY": 248.5437, "EPHEMERIS_TYPE": 0, "CLASSIFICATION_TYPE": "U", "NORAD_CAT_ID": 34136, "ELEMENT_SET_NO": 999, "REV_AT_EPOCH": 89988, "BSTAR": 0.00072632059, "MEAN_MOTION_DOT": 5.829e-05, "MEAN_MOTION_DDOT": 0}, "tle": {"line1": "1 34136U 93036LH  25345.24472205  .00005829  00000+0  72632-3 0  9999", "line2": "2 34136  74.0208  45.5807 0085895 168.9587 248.5437 14.80063802899885"}}, "geometry": {"type": "Point", "coordinates": [129.91871099439902, 73.96191087735623]}}, {"type": "Feature", "properties": {"norad_id": 34139, "name": "COSMOS 2251 DEB", "group": "cosmos-2251-debris", "lat": -58.20366467664337, "lon": 103.38106048042064, "alt_km": 700.1604276341595, "timestamp": "2025-12-11T18:59:46.469109+00:00", "meta": {"OBJECT_NAME": "COSMOS 2251 DEB", "OBJECT_ID": "1993-036LL", "EPOCH": "2025-12-11T05:18:09.368928", "MEAN_MOTION": 14.59029719, "ECCENTRICITY": 0.00425401, "INCLINATION": 74.0308, "RA_OF_ASC_NODE": 256.9579, "ARG_OF_PERICENTER": 328.0956, "MEAN_ANOMALY": 158.7734, "EPHEMERIS_TYPE": 0, "CLASSIFICATION_TYPE": "U", "NORAD_CAT_ID": 34139, "ELEMENT_SET_NO": 999, "REV_AT_EPOCH": 88127, "BSTAR": 0.0023111191, "MEAN_MOTION_DOT": 0.00010983, "MEAN_MOTION_DDOT": 0}, "tle": {"line1": "1 34139U 93036LL  25345.22094177  .00010983  00000+0  23111-2 0  9992", "line2": "2 34139  74.0308 256.9579 0042540 328.0956 158.7734 14.59029719881273"}}, "geometry": {"type": "Point", "coordinates": [103.38106048042064, -58.20366467664337]}}]}